CCSDS_OMM_VERS,COMMENT,CREATION_DATE,ORIGINATOR,OBJECT_NAME,OBJECT_ID,CENTER_NAME,REF_FRAME,TIME_SYSTEM,MEAN_ELEMENT_THEORY,EPOCH,MEAN_MOTION,ECCENTRICITY,INCLINATION,RA_OF_ASC_NODE,ARG_OF_PERICENTER,MEAN_ANOMALY,EPHEMERIS_TYPE,CLASSIFICATION_TYPE,NORAD_CAT_ID,ELEMENT_SET_NO,REV_AT_EPOCH,BSTAR,MEAN_MOTION_DOT,MEAN_MOTION_DDOT,SEMIMAJOR_AXIS,PERIOD,APOAPSIS,PERIAPSIS,OBJECT_TYPE,RCS_SIZE,COUNTRY_CODE,LAUNCH_DATE,SITE,DECAY_DATE,FILE,GP_ID,TLE_LINE0,TLE_LINE1,TLE_LINE2
2,GENERATED VIA SPACE-TRACK.ORG API,2017-10-14T21:44:06,18 SPCS,LEASAT 5,1990-002B,EARTH,TEME,UTC,SGP4,2017-10-14T01:12:18.911232,0.9959656,0.0004849,11.7635,10.7117,297.5181,115.8172,0,U,20410,999,8687,0.0,0.0,0,42355.09,1445.833,35997.493,35956.417,PAYLOAD,LARGE,US,1990-01-09,AFETR,,2192339,114819229,0 LEASAT 5,1 20410U 90002B   17287.05021888 +.00000000 +00000-0 +00000-0 0  9995,2 20410 011.7635 010.7117 0004849 297.5181 115.8172 00.99596560086870
2,GENERATED VIA SPACE-TRACK.ORG API,2017-10-16T05:31:08,18 SPCS,LEASAT 5,1990-002B,EARTH,TEME,UTC,SGP4,2017-10-15T21:17:42.624096,0.9959734,0.0004917,11.7639,10.697,297.0209,55.0204,0,U,20410,999,8688,0.0,-2.8e-07,0,42354.869,1445.821,35997.56,35955.908,PAYLOAD,LARGE,US,1990-01-09,AFETR,,2192905,114848841,0 LEASAT 5,1 20410U 90002B   17288.88729889 -.00000028 +00000-0 +00000-0 0  9994,2 20410 011.7639 010.6970 0004917 297.0209 055.0204 00.99597340086881
2,GENERATED VIA SPACE-TRACK.ORG API,2017-10-16T06:39:36,18 SPCS,LEASAT 5,1990-002B,EARTH,TEME,UTC,SGP4,2017-10-15T21:17:42.624096,0.9959734,0.0004917,11.7639,10.697,297.0209,55.0204,0,U,20410,999,8688,0.0,-2.8e-07,0,42354.869,1445.821,35997.56,35955.908,PAYLOAD,LARGE,US,1990-01-09,AFETR,,2192939,114853640,0 LEASAT 5,1 20410U 90002B   17288.88729889 -.00000028  00000-0  00000+0 0  9993,2 20410  11.7639  10.6970 0004917 297.0209  55.0204  0.99597340 86881
2,GENERATED VIA SPACE-TRACK.ORG API,2017-10-16T22:18:44,18 SPCS,LEASAT 5,1990-002B,EARTH,TEME,UTC,SGP4,2017-10-16T09:58:42.731904,0.99597561,0.0004938,11.764,10.6928,296.921,244.6116,0,U,20410,999,8689,0.0,-3.6e-07,0,42354.806,1445.818,35997.586,35955.757,PAYLOAD,LARGE,US,1990-01-09,AFETR,,2193235,114862741,0 LEASAT 5,1 20410U 90002B   17289.41577236 -.00000036 +00000-0 +00000-0 0  9990,2 20410 011.7640 010.6928 0004938 296.9210 244.6116 00.99597561086893
2,GENERATED VIA SPACE-TRACK.ORG API,2017-10-17T21:44:59,18 SPCS,LEASAT 5,1990-002B,EARTH,TEME,UTC,SGP4,2017-10-17T09:46:42.524832,0.99597932,0.0004988,11.7642,10.685,296.658,240.4495,0,U,20410,999,8690,0.0,-5.1e-07,0,42354.701,1445.813,35997.693,35955.44,PAYLOAD,LARGE,US,1990-01-09,AFETR,,2193648,114888105,0 LEASAT 5,1 20410U 90002B   17290.40743663 -.00000051 +00000-0 +00000-0 0  9997,2 20410 011.7642 010.6850 0004988 296.6580 240.4495 00.99597932086909
2,GENERATED VIA SPACE-TRACK.ORG API,2017-10-20T14:33:35,18 SPCS,LEASAT 5,1990-002B,EARTH,TEME,UTC,SGP4,2017-10-19T21:41:57.558624,0.99598757,0.0005124,11.7647,10.6655,296.3741,55.9653,0,U,20410,999,8692,0.0,-8.8e-07,0,42354.467,1445.801,35998.035,35954.63,PAYLOAD,LARGE,US,1990-01-09,AFETR,,2194958,114957575,0 LEASAT 5,1 20410U 90002B   17292.90413841 -.00000088  00000-0  00000+0 0  9995,2 20410  11.7647  10.6655 0005124 296.3741  55.9653  0.99598757 86929
2,GENERATED VIA SPACE-TRACK.ORG API,2017-10-20T23:16:39,18 SPCS,LEASAT 5,1990-002B,EARTH,TEME,UTC,SGP4,2017-10-19T22:43:42.843360,0.99598766,0.0005124,11.7647,10.6651,296.3749,71.3416,0,U,20410,999,8693,0.0,-8.9e-07,0,42354.465,1445.801,35998.032,35954.627,PAYLOAD,LARGE,US,1990-01-09,AFETR,,2195154,114965292,0 LEASAT 5,1 20410U 90002B   17292.94702365 -.00000089 +00000-0 +00000-0 0  9993,2 20410 011.7647 010.6651 0005124 296.3749 071.3416 00.99598766086933
2,GENERATED VIA SPACE-TRACK.ORG API,2017-10-21T22:07:18,18 SPCS,LEASAT 5,1990-002B,EARTH,TEME,UTC,SGP4,2017-10-21T09:48:42.650208,0.99599161,0.0005207,11.765,10.6538,296.2238,235.6482,0,U,20410,999,8694,0.0,-1.1e-06,0,42354.353,1445.795,35998.272,35954.164,PAYLOAD,LARGE,US,1990-01-09,AFETR,,2195550,114987906,0 LEASAT 5,1 20410U 90002B   17294.40882697 -.00000110 +00000-0 +00000-0 0  9998,2 20410 011.7650 010.6538 0005207 296.2238 235.6482 00.99599161086944
2,GENERATED VIA SPACE-TRACK.ORG API,2017-10-22T06:35:25,18 SPCS,LEASAT 5,1990-002B,EARTH,TEME,UTC,SGP4,2017-10-21T21:46:42.932640,0.99599274,0.0005241,11.7651,10.6499,296.3799,54.2793,0,U,20410,999,8694,0.0,-1.17e-06,0,42354.321,1445.793,35998.384,35953.988,PAYLOAD,LARGE,US,1990-01-09,AFETR,,2195745,115005044,0 LEASAT 5,1 20410U 90002B   17294.90744135 -.00000117  00000-0  00000+0 0  9993,2 20410  11.7651  10.6499 0005241 296.3799  54.2793  0.99599274 86947
2,GENERATED VIA SPACE-TRACK.ORG API,2017-10-22T21:45:27,18 SPCS,LEASAT 5,1990-002B,EARTH,TEME,UTC,SGP4,2017-10-22T06:39:53.574624,0.99599357,0.0005244,11.7652,10.647,296.3518,187.072,0,U,20410,999,8695,0.0,-1.22e-06,0,42354.297,1445.792,35998.373,35953.952,PAYLOAD,LARGE,US,1990-01-09,AFETR,,2196005,115014164,0 LEASAT 5,1 20410U 90002B   17295.27770341 -.00000122 +00000-0 +00000-0 0  9999,2 20410 011.7652 010.6470 0005244 296.3518 187.0720 00.99599357086957
2,GENERATED VIA SPACE-TRACK.ORG API,2017-10-23T23:57:33,18 SPCS,LEASAT 5,1990-002B,EARTH,TEME,UTC,SGP4,2017-10-23T10:15:42.719328,0.99599587,0.0005306,11.7654,10.6381,296.4312,239.3024,0,U,20410,999,8696,0.0,-1.38e-06,0,42354.232,1445.789,35998.57,35953.624,PAYLOAD,LARGE,US,1990-01-09,AFETR,,2196558,115042058,0 LEASAT 5,1 20410U 90002B   17296.42757777 -.00000138 +00000-0 +00000-0 0  9992,2 20410 011.7654 010.6381 0005306 296.4312 239.3024 00.99599587086966
2,GENERATED VIA SPACE-TRACK.ORG API,2017-10-24T06:38:41,18 SPCS,LEASAT 5,1990-002B,EARTH,TEME,UTC,SGP4,2017-10-23T22:06:39.792960,0.99599666,0.0005338,11.7655,10.6343,296.6543,56.1109,0,U,20410,999,8696,0.0,-1.45e-06,0,42354.21,1445.787,35998.683,35953.466,PAYLOAD,LARGE,US,1990-01-09,AFETR,,2196610,115056406,0 LEASAT 5,1 20410U 90002B   17296.92129390 -.00000145  00000-0  00000+0 0  9998,2 20410  11.7655  10.6343 0005338 296.6543  56.1109  0.99599666 86965
2,GENERATED VIA SPACE-TRACK.ORG API,2017-10-24T21:58:18,18 SPCS,LEASAT 5,1990-002B,EARTH,TEME,UTC,SGP4,2017-10-23T23:07:42.611232,0.99599662,0.0005333,11.7655,10.634,296.6851,71.2809,0,U,20410,999,8697,0.0,-1.46e-06,0,42354.211,1445.788,35998.663,35953.488,PAYLOAD,LARGE,US,1990-01-09,AFETR,,2196939,115066257,0 LEASAT 5,1 20410U 90002B   17296.96368763 -.00000146 +00000-0 +00000-0 0  9993,2 20410 011.7655 010.6340 0005333 296.6851 071.2809 00.99599662086971
2,GENERATED VIA SPACE-TRACK.ORG API,2017-10-26T05:09:31,18 SPCS,LEASAT 5,1990-002B,EARTH,TEME,UTC,SGP4,2017-10-25T22:21:42.792192,0.9959987,0.0005413,11.7659,10.6188,297.1332,56.5188,0,U,20410,999,8698,0.0,-1.72e-06,0,42354.152,1445.785,35998.943,35953.09,PAYLOAD,LARGE,US,1990-01-09,AFETR,,2197547,115092137,0 LEASAT 5,1 20410U 90002B   17298.93174528 -.00000172 +00000-0 +00000-0 0  9995,2 20410 011.7659 010.6188 0005413 297.1332 056.5188 00.99599870086982
2,GENERATED VIA SPACE-TRACK.ORG API,2017-10-26T06:34:35,18 SPCS,LEASAT 5,1990-002B,EARTH,TEME,UTC,SGP4,2017-10-25T22:21:42.792192,0.9959987,0.0005413,11.7659,10.6188,297.1332,56.5188,0,U,20410,999,8698,0.0,-1.72e-06,0,42354.152,1445.785,35998.943,35953.09,PAYLOAD,LARGE,US,1990-01-09,AFETR,,2197584,115099564,0 LEASAT 5,1 20410U 90002B   17298.93174528 -.00000172  00000-0  00000+0 0  9994,2 20410  11.7659  10.6188 0005413 297.1332  56.5188  0.99599870 86982
2,GENERATED VIA SPACE-TRACK.ORG API,2017-10-28T06:32:03,18 SPCS,LEASAT 5,1990-002B,EARTH,TEME,UTC,SGP4,2017-10-27T23:07:42.544704,0.99599998,0.0005491,11.7662,10.6031,297.6883,64.5604,0,U,20410,999,8700,0.0,-1.98e-06,0,42354.115,1445.783,35999.237,35952.724,PAYLOAD,LARGE,US,1990-01-09,AFETR,,2198554,115140005,0 LEASAT 5,1 20410U 90002B   17300.96368686 -.00000198  00000-0  00000+0 0  9999,2 20410  11.7662  10.6031 0005491 297.6883  64.5604  0.99599998 87002
2,GENERATED VIA SPACE-TRACK.ORG API,2017-10-29T21:52:12,18 SPCS,LEASAT 5,1990-002B,EARTH,TEME,UTC,SGP4,2017-10-28T23:27:42.637248,0.99600015,0.0005515,11.7664,10.5952,297.9548,67.847,0,U,20410,999,8702,0.0,-2.1e-06,0,42354.111,1445.782,35999.334,35952.617,PAYLOAD,LARGE,US,1990-01-09,AFETR,,2199293,115183047,0 LEASAT 5,1 20410U 90002B   17301.97757682 -.00000210 +00000-0 +00000-0 0  9995,2 20410 011.7664 010.5952 0005515 297.9548 067.8470 00.99600015087025
2,GENERATED VIA SPACE-TRACK.ORG API,2017-10-30T06:35:07,18 SPCS,LEASAT 5,1990-002B,EARTH,TEME,UTC,SGP4,2017-10-29T23:41:27.561120,0.99599984,0.0005541,11.7666,10.5874,298.2165,69.5807,0,U,20410,999,8702,0.0,-2.22e-06,0,42354.119,1445.783,35999.453,35952.516,PAYLOAD,LARGE,US,1990-01-09,AFETR,,2199512,115201331,0 LEASAT 5,1 20410U 90002B   17302.98712455 -.00000222  00000-0  00000+0 0  9998,2 20410  11.7666  10.5874 0005541 298.2165  69.5807  0.99599984 87023
2,GENERATED VIA SPACE-TRACK.ORG API,2017-10-30T22:33:57,18 SPCS,LEASAT 5,1990-002B,EARTH,TEME,UTC,SGP4,2017-10-30T10:41:42.572832,0.99599949,0.0005553,11.7667,10.5838,298.2746,233.9301,0,U,20410,999,8703,0.0,-2.27e-06,0,42354.129,1445.783,35999.514,35952.475,PAYLOAD,LARGE,US,1990-01-09,AFETR,,2199768,115210717,0 LEASAT 5,1 20410U 90002B   17303.44563163 -.00000227 +00000-0 +00000-0 0  9996,2 20410 011.7667 010.5838 0005553 298.2746 233.9301 00.99599949087030
2,GENERATED VIA SPACE-TRACK.ORG API,2017-10-31T22:17:01,18 SPCS,LEASAT 5,1990-002B,EARTH,TEME,UTC,SGP4,2017-10-31T01:19:37.906176,0.99599898,0.0005567,11.7668,10.579,298.4505,92.3637,0,U,20410,999,8704,0.0,-2.33e-06,0,42354.144,1445.784,35999.587,35952.43,PAYLOAD,LARGE,US,1990-01-09,AFETR,,2200223,115235394,0 LEASAT 5,1 20410U 90002B   17304.05529984 -.00000233 +00000-0 +00000-0 0  9994,2 20410 011.7668 010.5790 0005567 298.4505 092.3637 00.99599898087041
